49097,ONEWEB-0311,2021,109.29,148.0,+,87.91,Active,1,LEO,Kazakhstan,UK,Commercial,Communications,Soyuz,1 49097U 21075Y   25009.28807502 -.00000174  00000+0 -48114-3 0  9996,2 49097  87.9105 110.2376 0001920  93.2504 266.8847 13.17649114164634,13.17649114,0.000192,LEO
49098,ONEWEB-0312,2021,109.29,148.0,+,87.91,Active,1,LEO,Kazakhstan,UK,Commercial,Communications,Soyuz,1 49098U 21075Z   25009.22732668  .00000069  00000+0  14565-3 0  9995,2 49098  87.9104 110.2814 0002202 102.9038 257.2339 13.17651519164604,13.17651519,0.0002202,LEO
49099,ONEWEB-0313,2021,109.29,148.0,+,87.91,Active,1,LEO,Kazakhstan,UK,Commercial,Communications,Soyuz,1 49099U 21075AA  25009.23224878  .00000044  00000+0  81162-4 0  9997,2 49099  87.9103 110.2961 0001945 102.0609 258.0741 13.17650956164593,13.17650956,0.0001945,LEO
49100,ONEWEB-0314,2021,109.29,148.0,+,87.91,Active,1,LEO,Kazakhstan,UK,Commercial,Communications,Soyuz,1 49100U 21075AB  25009.27457338  .00000088  00000+0  19355-3 0  9995,2 49100  87.9101 110.2251 0002115 102.2632 257.8736 13.17652104164570,13.17652104,0.0002115,LEO
49101,ONEWEB-0315,2021,109.72,148.0,+,87.89,Active,1,LEO,Kazakhstan,UK,Commercial,Communications,Soyuz,1 49101U 21075AC  25009.23134882  .00000318  00000+0  84913-3 0  9996,2 49101  87.8874  94.9837 0001781  90.9688 269.1644 13.12441338166449,13.12441338,0.0001781,LEO
49102,ONEWEB-0316,2021,109.2,148.0,+,87.91,Active,1,LEO,Kazakhstan,UK,Commercial,Communications,Soyuz,1 49102U 21075AD  25009.23226902  .00000055  00000+0  10552-3 0  9998,2 49102  87.9098  79.7061 0001915  95.9677 264.1673 13.18688133168150,13.18688133,0.0001915,LEO
49103,ONEWEB-0317,2021,109.72,148.0,+,87.89,Active,1,LEO,Kazakhstan,UK,Commercial,Communications,Soyuz,1 49103U 21075AE  25009.22486134  .00000472  00000+0  12754-2 0  9991,2 49103  87.8874  94.9978 0001648 121.3881 238.7409 13.12442342166462,13.12442342,0.0001648,LEO
49104,ONEWEB-0318,2021,109.2,148.0,+,87.91,Active,1,LEO,Kazakhstan,UK,Commercial,Communications,Soyuz,1 49104U 21075AF  25009.22911402  .00000020  00000+0  18731-4 0  9995,2 49104  87.9095  79.6949 0001945  93.3801 266.7553 13.18688045168110,13.18688045,0.0001945,LEO
